{"type":"FeatureCollection","name":"sl_districts","crs":{"type":"name","properties":{"name":"urn:ogc:def:crs:OGC:1.3:CRS84"}},"hc-transform":{"default":{"crs":"EPSG:4326"}},"features":[{"type":"Feature","properties":{"NEW_DIST":"Bo","NEW_PROV":"Southern","CS_Pro_Num":3,"CS_Pro_Nam":"Southern","CS_Dis_Num":31,"CS_Dis_Nam":"Bo","layer":"Bo District"},"geometry":{"type":"MultiPolygon","coordinates":[[[[-11.927,7.531],[-11.967,7.531],[-11.989,7.55],[-11.972,7.584],[-11.952,7.603],[-11.997,7.595],[-12.006,7.633],[-11.996,7.64],[-11.976,7.637],[-11.974,7.655],[-11.983,7.651],[-12.004,7.669],[-12.022,7.658],[-12.05,7.691],[-12.08,7.691],[-12.104,7.679],[-12.117,7.687],[-12.108,7.716],[-12.137,7.765],[-12.137,7.787],[-12.129,7.791],[-12.137,7.799],[-12.136,7.843],[-12.147,7.856],[-12.136,7.877],[-12.133,7.919],[-12.142,7.956],[-12.126,7.977],[-12.049,7.977],[-12.009,8.014],[-11.912,8.001],[-11.894,7.989],[-11.882,7.994],[-11.894,8.008],[-11.882,8.029],[-11.916,8.068],[-11.875,8.141],[-11.846,8.155],[-11.816,8.153],[-11.801,8.22],[-11.804,8.244],[-11.815,8.258],[-11.784,8.282],[-11.78,8.294],[-11.791,8.343],[-11.803,8.333],[-11.819,8.333],[-11.823,8.358],[-11.816,8.372],[-11.767,8.393],[-11.741,8.422],[-11.739,8.439],[-11.727,8.452],[-11.729,8.483],[-11.682,8.471],[-11.624,8.475],[-11.592,8.489],[-11.59,8.468],[-11.554,8.431],[-11.546,8.37],[-11.526,8.355],[-11.5,8.35],[-11.478,8.328],[-11.469,8.314],[-11.462,8.268],[-11.438,8.236],[-11.4,8.228],[-11.402,8.216],[-11.382,8.194],[-11.404,8.163],[-11.403,8.137],[-11.342,8.124],[-11.335,8.096],[-11.336,8.024],[-11.378,8.026],[-11.388,8.009],[-11.367,7.993],[-11.354,7.96],[-11.369,7.943],[-11.39,7.936],[-11.384,7.908],[-11.417,7.91],[-11.425,7.917],[-11.447,7.903],[-11.447,7.874],[-11.474,7.857],[-11.485,7.832],[-11.482,7.799],[-11.493,7.786],[-11.469,7.781],[-11.451,7.809],[-11.425,7.823],[-11.402,7.78],[-11.404,7.754],[-11.415,7.749],[-11.414,7.727],[-11.426,7.702],[-11.455,7.693],[-11.463,7.707],[-11.483,7.713],[-11.491,7.686],[-11.511,7.669],[-11.532,7.677],[-11.558,7.669],[-11.581,7.628],[-11.602,7.626],[-11.615,7.637],[-11.669,7.633],[-11.694,7.598],[-11.694,7.583],[-11.716,7.561],[-11.715,7.548],[-11.742,7.587],[-11.715,7.634],[-11.722,7.647],[-11.719,7.666],[-11.732,7.668],[-11.743,7.663],[-11.746,7.638],[-11.769,7.602],[-11.792,7.586],[-11.798,7.594],[-11.807,7.585],[-11.827,7.585],[-11.843,7.57],[-11.848,7.561],[-11.822,7.531],[-11.846,7.53],[-11.857,7.54],[-11.868,7.534],[-11.872,7.529],[-11.857,7.507],[-11.862,7.487],[-11.895,7.485],[-11.9,7.491],[-11.879,7.51],[-11.914,7.535],[-11.925,7.531],[-11.927,7.531]]]]}},{"type":"Feature","properties":{"NEW_DIST":"Bombali","NEW_PROV":"Northern","CS_Pro_Num":2,"CS_Pro_Nam":"Northern","CS_Dis_Num":21,"CS_Dis_Nam":"Bombali","layer":"Bombali District"},"geometry":{"type":"MultiPolygon","coordinates":[[[[-12.2,8.607],[-12.241,8.603],[-12.243,8.612],[-12.232,8.625],[-12.243,8.645],[-12.261,8.652],[-12.261,8.664],[-12.243,8.698],[-12.253,8.707],[-12.236,8.708],[-12.259,8.747],[-12.263,8.721],[-12.278,8.711],[-12.269,8.751],[-12.287,8.745],[-12.304,8.761],[-12.321,8.73],[-12.337,8.735],[-12.367,8.764],[-12.37,8.791],[-12.358,8.799],[-12.337,8.793],[-12.326,8.801],[-12.317,8.825],[-12.354,8.902],[-12.317,8.908],[-12.313,8.892],[-12.305,8.891],[-12.278,8.908],[-12.286,8.923],[-12.276,8.946],[-12.262,8.954],[-12.28,8.952],[-12.284,8.961],[-12.335,8.968],[-12.344,9.007],[-12.364,9.028],[-12.359,9.041],[-12.385,9.056],[-12.389,9.069],[-12.37,9.069],[-12.351,9.096],[-12.326,9.096],[-12.321,9.083],[-12.267,9.096],[-12.234,9.119],[-12.235,9.134],[-12.216,9.146],[-12.215,9.163],[-12.182,9.188],[-12.175,9.217],[-12.149,9.239],[-12.209,9.248],[-12.227,9.244],[-12.255,9.265],[-12.26,9.27],[-12.234,9.287],[-12.244,9.292],[-12.232,9.314],[-12.259,9.328],[-12.261,9.34],[-12.232,9.348],[-12.211,9.369],[-12.21,9.35],[-12.189,9.332],[-12.126,9.318],[-12.094,9.351],[-12.101,9.36],[-12.09,9.382],[-12.051,9.368],[-12.026,9.374],[-12.014,9.367],[-12.011,9.375],[-11.994,9.368],[-11.99,9.389],[-11.996,9.397],[-11.98,9.411],[-11.975,9.482],[-11.961,9.521],[-11.95,9.534],[-11.885,9.539],[-11.89,9.514],[-11.882,9.521],[-11.867,9.508],[-11.88,9.488],[-11.873,9.466],[-11.841,9.446],[-11.841,9.431],[-11.812,9.398],[-11.825,9.361],[-11.808,9.347],[-11.848,9.309],[-11.837,9.266],[-11.865,9.267],[-11.851,9.25],[-11.841,9.253],[-11.832,9.229],[-11.796,9.231],[-11.797,9.21],[-11.822,9.186],[-11.818,9.17],[-11.834,9.157],[-11.842,9.121],[-11.834,9.108],[-11.819,9.106],[-11.813,9.083],[-11.762,9.056],[-11.8,9.013],[-11.813,9.016],[-11.822,9.029],[-11.82,9.02],[-11.832,9.021],[-11.829,9.011],[-11.838,8.999],[-11.86,8.997],[-11.871,8.988],[-11.865,8.983],[-11.871,8.973],[-11.887,8.972],[-11.871,8.953],[-11.867,8.879],[-11.885,8.86],[-11.885,8.797],[-11.879,8.788],[-11.89,8.766],[-11.995,8.707],[-12.005,8.681],[-12.028,8.689],[-12.038,8.679],[-12.044,8.692],[-12.06,8.686],[-12.06,8.703],[-12.073,8.704],[-12.073,8.681],[-12.102,8.675],[-12.122,8.659],[-12.125,8.644],[-12.166,8.633],[-12.174,8.617],[-12.185,8.623],[-12.181,8.615],[-12.195,8.595],[-12.2,8.606],[-12.2,8.607]]]]}},{"type":"Feature","properties":{"NEW_DIST":"Bonthe","NEW_PROV":"Southern","CS_Pro_Num":3,"CS_Pro_Nam":"Southern","CS_Dis_Num":32,"CS_Dis_Nam":"Bonthe","layer":"Bonthe District"},"geometry":{"type":"MultiPolygon","coordinates":[[[[-12.563,7.376],[-12.563,7.376],[-12.563,7.376],[-12.563,7.377],[-12.563,7.377],[-12.563,7.377],[-12.562,7.378],[-12.562,7.378],[-12.562,7.378],[-12.562,7.378],[-12.562,7.379],[-12.562,7.379],[-12.562,7.379],[-12.562,7.379],[-12.562,7.379],[-12.562,7.379],[-12.561,7.379],[-12.561,7.379],[-12.561,7.379],[-12.561,7.378],[-12.561,7.378],[-12.561,7.378],[-12.561,7.378],[-12.561,7.378],[-12.561,7.378],[-12.561,7.378],[-12.561,7.377],[-12.561,7.377],[-12.562,7.377],[-12.562,7.377],[-12.562,7.377],[-12.562,7.377],[-12.562,7.377],[-12.562,7.377],[-12.563,7.376],[-12.563,7.376]]],[[[-12.569,7.4],[-12.568,7.399],[-12.569,7.398],[-12.569,7.397],[-12.569,7.397],[-12.569,7.396],[-12.569,7.395],[-12.569,7.394],[-12.569,7.394],[-12.569,7.393],[-12.569,7.393],[-12.568,7.392],[-12.568,7.392],[-12.568,7.392],[-12.569,7.392],[-12.569,7.393],[-12.57,7.393],[-12.57,7.393],[-12.57,7.393],[-12.571,7.393],[-12.571,7.393],[-12.571,7.394],[-12.571,7.394],[-12.57,7.395],[-12.57,7.395],[-12.57,7.395],[-12.57,7.397],[-12.57,7.398],[-12.57,7.398],[-12.57,7.399],[-12.57,7.4],[-12.57,7.4],[-12.57,7.4],[-12.57,7.4],[-12.569,7.4],[-12.569,7.4],[-12.569,7.4],[-12.569,7.4]]],[[[-12.567,7.42],[-12.566,7.42],[-12.566,7.42],[-12.565,7.42],[-12.566,7.419],[-12.567,7.419],[-12.567,7.418],[-12.568,7.417],[-12.569,7.415],[-12.57,7.415],[-12.57,7.416],[-12.57,7.417],[-12.569,7.419],[-12.567,7.42]]],[[[-12.57,7.401],[-12.575,7.41],[-12.569,7.402],[-12.57,7.401]]],[[[-11.942,7.225],[-11.96,7.192],[-12.45,7.373],[-12.47,7.407],[-12.412,7.414],[-12.439,7.428],[-12.466,7.425],[-12.488,7.454],[-12.443,7.52],[-12.43,7.53],[-12.386,7.534],[-12.381,7.541],[-12.395,7.554],[-12.403,7.549],[-12.423,7.557],[-12.465,7.556],[-12.477,7.614],[-12.499,7.63],[-12.5,7.646],[-12.511,7.636],[-12.537,7.65],[-12.552,7.67],[-12.547,7.681],[-12.518,7.692],[-12.491,7.745],[-12.471,7.723],[-12.456,7.722],[-12.441,7.74],[-12.449,7.742],[-12.446,7.753],[-12.408,7.766],[-12.395,7.756],[-12.389,7.772],[-12.371,7.779],[-12.352,7.808],[-12.298,7.801],[-12.295,7.761],[-12.253,7.711],[-12.248,7.694],[-12.214,7.686],[-12.186,7.664],[-12.16,7.67],[-12.152,7.663],[-12.125,7.662],[-12.108,7.679],[-12.066,7.692],[-12.046,7.689],[-12.022,7.658],[-12.004,7.669],[-11.983,7.651],[-11.974,7.655],[-11.976,7.637],[-11.996,7.64],[-12.006,7.633],[-11.997,7.595],[-11.952,7.603],[-11.972,7.584],[-11.989,7.55],[-11.967,7.531],[-11.916,7.536],[-11.879,7.51],[-11.9,7.491],[-11.89,7.482],[-11.887,7.464],[-11.894,7.461],[-11.898,7.44],[-11.88,7.418],[-11.889,7.401],[-11.878,7.394],[-11.888,7.349],[-11.902,7.338],[-11.898,7.292],[-11.879,7.277],[-11.899,7.21],[-11.915,7.218],[-11.923,7.213],[-11.94,7.228],[-11.942,7.225]]],[[[-12.508,7.39],[-12.47,7.407],[-12.45,7.373],[-12.522,7.385],[-12.51,7.39],[-12.508,7.39]]],[[[-12.441,7.41],[-12.45,7.415],[-12.426,7.419],[-12.435,7.412],[-12.441,7.41]]],[[[-12.501,7.429],[-12.503,7.435],[-12.5,7.43],[-12.501,7.429]]],[[[-12.481,7.431],[-12.481,7.437],[-12.48,7.432],[-12.481,7.431]]],[[[-12.485,7.432],[-12.496,7.442],[-12.493,7.448],[-12.484,7.433],[-12.485,7.432]]],[[[-12.483,7.441],[-12.489,7.445],[-12.483,7.442],[-12.483,7.441]]],[[[-12.473,7.513],[-12.475,7.523],[-12.472,7.515],[-12.473,7.513]]],[[[-12.496,7.447],[-12.495,7.454],[-12.496,7.449],[-12.496,7.447]]],[[[-12.519,7.454],[-12.52,7.453],[-12.521,7.454],[-12.52,7.455],[-12.519,7.455],[-12.519,7.454],[-12.519,7.454]]],[[[-12.497,7.469],[-12.497,7.469],[-12.498,7.468],[-12.498,7.467],[-12.498,7.467],[-12.499,7.466],[-12.5,7.466],[-12.5,7.465],[-12.5,7.465],[-12.501,7.466],[-12.501,7.467],[-12.501,7.467],[-12.501,7.468],[-12.501,7.468],[-12.5,7.469],[-12.499,7.469],[-12.498,7.469],[-12.498,7.469],[-12.497,7.469]]],[[[-12.509,7.47],[-12.516,7.465],[-12.51,7.47],[-12.509,7.47]]],[[[-12.545,7.389],[-12.568,7.393],[-12.562,7.423],[-12.58,7.452],[-12.618,7.473],[-12.752,7.521],[-12.896,7.56],[-12.956,7.568],[-12.959,7.575],[-12.917,7.58],[-12.896,7.571],[-12.922,7.592],[-12.908,7.606],[-12.872,7.619],[-12.844,7.616],[-12.821,7.625],[-12.811,7.618],[-12.789,7.629],[-12.724,7.626],[-12.695,7.641],[-12.592,7.639],[-12.575,7.621],[-12.588,7.612],[-12.569,7.617],[-12.534,7.606],[-12.508,7.589],[-12.494,7.569],[-12.504,7.547],[-12.514,7.556],[-12.516,7.55],[-12.489,7.509],[-12.531,7.468],[-12.536,7.426],[-12.528,7.392],[-12.536,7.391],[-12.545,7.389]]],[[[-12.483,7.521],[-12.492,7.529],[-12.489,7.536],[-12.483,7.521]]],[[[-12.495,7.532],[-12.492,7.542],[-12.495,7.533],[-12.495,7.532]]],[[[-12.468,7.522],[-12.478,7.538],[-12.469,7.545],[-12.459,7.541],[-12.468,7.522]]],[[[-12.494,7.543],[-12.494,7.543],[-12.495,7.544],[-12.496,7.544],[-12.497,7.545],[-12.496,7.546],[-12.495,7.547],[-12.494,7.548],[-12.493,7.547],[-12.493,7.547],[-12.492,7.546],[-12.492,7.545],[-12.493,7.544],[-12.493,7.543],[-12.493,7.543],[-12.494,7.543]]],[[[-12.473,7.545],[-12.481,7.543],[-12.483,7.551],[-12.473,7.546],[-12.473,7.545]]],[[[-12.972,7.564],[-12.972,7.563],[-12.972,7.562],[-12.972,7.562],[-12.973,7.562],[-12.973,7.561],[-12.973,7.561],[-12.974,7.562],[-12.974,7.562],[-12.974,7.563],[-12.974,7.563],[-12.974,7.564],[-12.973,7.564],[-12.973,7.564],[-12.973,7.564],[-12.972,7.564]]],[[[-12.99,7.586],[-12.988,7.594],[-12.97,7.589],[-12.965,7.577],[-12.979,7.57],[-13.005,7.583],[-12.998,7.591],[-12.99,7.586]],[[-12.991,7.581],[-12.997,7.585],[-12.99,7.579],[-12.991,7.581]]],[[[-12.478,7.585],[-12.484,7.597],[-12.477,7.586],[-12.478,7.585]]],[[[-12.98,7.592],[-12.981,7.591],[-12.981,7.591],[-12.981,7.591],[-12.981,7.592],[-12.981,7.592],[-12.981,7.592],[-12.981,7.592],[-12.98,7.593],[-12.98,7.593],[-12.98,7.593],[-12.979,7.594],[-12.979,7.594],[-12.979,7.593],[-12.979,7.593],[-12.979,7.593],[-12.979,7.593],[-12.979,7.592],[-12.979,7.592],[-12.98,7.592],[-12.98,7.592],[-12.98,7.592],[-12.98,7.592]]],[[[-12.924,7.585],[-12.926,7.592],[-12.923,7.586],[-12.924,7.585]]],[[[-13.014,7.593],[-13.001,7.593],[-13.014,7.586],[-13.019,7.592],[-13.005,7.592],[-13.017,7.591],[-13.022,7.604],[-13.004,7.602],[-13.014,7.593]],[[-13.015,7.598],[-13.014,7.595],[-13.015,7.595],[-13.014,7.595],[-13.014,7.596],[-13.014,7.596],[-13.014,7.599],[-13.015,7.598]]],[[[-12.945,7.608],[-12.944,7.608],[-12.944,7.608],[-12.943,7.608],[-12.942,7.608],[-12.942,7.607],[-12.941,7.607],[-12.941,7.607],[-12.94,7.607],[-12.94,7.607],[-12.94,7.607],[-12.94,7.606],[-12.94,7.606],[-12.943,7.606],[-12.943,7.606],[-12.944,7.607],[-12.945,7.607],[-12.945,7.607],[-12.945,7.608],[-12.945,7.608]]],[[[-12.476,7.594],[-12.483,7.598],[-12.477,7.594],[-12.476,7.594]]],[[[-12.494,7.621],[-12.479,7.605],[-12.509,7.618],[-12.497,7.621],[-12.494,7.621]]],[[[-12.918,7.617],[-12.909,7.622],[-12.917,7.616],[-12.918,7.617]]],[[[-13.075,7.653],[-13.086,7.664],[-13.075,7.654],[-13.075,7.653]]],[[[-13.068,7.673],[-13.055,7.675],[-13.077,7.665],[-13.068,7.673]]],[[[-12.684,7.681],[-12.693,7.671],[-12.703,7.672],[-12.687,7.681],[-12.684,7.681]]],[[[-12.518,7.716],[-12.519,7.696],[-12.541,7.694],[-12.532,7.71],[-12.518,7.716]]],[[[-12.503,7.627],[-12.503,7.626],[-12.504,7.627],[-12.505,7.627],[-12.506,7.628],[-12.505,7.629],[-12.505,7.629],[-12.504,7.63],[-12.504,7.631],[-12.504,7.631],[-12.503,7.631],[-12.503,7.63],[-12.502,7.629],[-12.502,7.629],[-12.502,7.628],[-12.503,7.627],[-12.503,7.627]]],[[[-13.069,7.653],[-13.068,7.653],[-13.068,7.653],[-13.068,7.653],[-13.068,7.653],[-13.068,7.652],[-13.068,7.652],[-13.068,7.652],[-13.068,7.652],[-13.069,7.651],[-13.068,7.651],[-13.068,7.651],[-13.068,7.65],[-13.069,7.65],[-13.069,7.65],[-13.069,7.65],[-13.07,7.651],[-13.07,7.651],[-13.07,7.651],[-13.069,7.652],[-13.069,7.652],[-13.069,7.652],[-13.069,7.652],[-13.069,7.653],[-13.069,7.653],[-13.069,7.653]]],[[[-13.017,7.617],[-13.022,7.625],[-13.018,7.62],[-13.017,7.617]]],[[[-12.955,7.632],[-12.956,7.632],[-12.957,7.631],[-12.957,7.63],[-12.957,7.63],[-12.957,7.63],[-12.957,7.63],[-12.957,7.63],[-12.957,7.63],[-12.957,7.63],[-12.957,7.629],[-12.957,7.629],[-12.957,7.629],[-12.958,7.629],[-12.958,7.629],[-12.958,7.63],[-12.958,7.63],[-12.958,7.63],[-12.958,7.63],[-12.958,7.631],[-12.957,7.631],[-12.957,7.632],[-12.957,7.632],[-12.956,7.633],[-12.956,7.633],[-12.954,7.634],[-12.954,7.633],[-12.953,7.633],[-12.953,7.632],[-12.953,7.632],[-12.953,7.632],[-12.953,7.632],[-12.953,7.632],[-12.953,7.632],[-12.954,7.632],[-12.954,7.632],[-12.954,7.632],[-12.955,7.632],[-12.955,7.632]]],[[[-12.554,7.63],[-12.562,7.636],[-12.554,7.631],[-12.554,7.63]]],[[[-12.523,7.625],[-12.542,7.631],[-12.556,7.656],[-12.547,7.657],[-12.525,7.64],[-12.523,7.626],[-12.523,7.625]]],[[[-12.994,7.633],[-13.004,7.635],[-12.993,7.643],[-12.993,7.635],[-12.994,7.633]]],[[[-13.058,7.641],[-13.031,7.66],[-13.02,7.657],[-13.047,7.639],[-13.042,7.618],[-13.066,7.619],[-13.051,7.621],[-13.065,7.622],[-13.072,7.633],[-13.058,7.642],[-13.058,7.641]]]]}},{"type":"Feature","properties":{"NEW_DIST":"Falaba","NEW_PROV":"Northern","CS_Pro_Num":2,"CS_Pro_Nam":"Northern","CS_Dis_Num":51,"CS_Dis_Nam":"Falaba","layer":"Falaba District"},"geometry":{"type":"MultiPolygon","coordinates":[[[[-10.728,9.082],[-10.645,9.083],[-10.593,9.062],[-10.579,9.048],[-10.622,9.042],[-10.642,9.025],[-10.678,9.015],[-10.694,8.966],[-10.679,8.963],[-10.674,8.935],[-10.729,8.931],[-10.741,8.939],[-10.756,8.933],[-10.781,8.944],[-10.8,8.934],[-10.826,8.936],[-10.853,8.955],[-10.874,8.949],[-10.896,8.974],[-10.914,8.958],[-10.932,8.986],[-10.913,9.008],[-11.005,9.061],[-11.016,9.058],[-11.055,9.077],[-11.072,9.076],[-11.083,9.063],[-11.091,9.066],[-11.122,9.039],[-11.139,9.009],[-11.149,9.019],[-11.153,9.052],[-11.123,9.051],[-11.093,9.082],[-11.179,9.179],[-11.209,9.128],[-11.225,9.149],[-11.238,9.146],[-11.251,9.154],[-11.251,9.192],[-11.244,9.198],[-11.249,9.216],[-11.259,9.209],[-11.325,9.203],[-11.34,9.19],[-11.385,9.19],[-11.386,9.178],[-11.418,9.178],[-11.387,9.256],[-11.402,9.276],[-11.449,9.311],[-11.445,9.342],[-11.465,9.375],[-11.542,9.377],[-11.532,9.408],[-11.541,9.41],[-11.539,9.433],[-11.551,9.461],[-11.559,9.463],[-11.556,9.48],[-11.538,9.499],[-11.536,9.522],[-11.496,9.52],[-11.459,9.545],[-11.442,9.522],[-11.383,9.476],[-11.335,9.491],[-11.327,9.534],[-11.369,9.567],[-11.343,9.601],[-11.348,9.624],[-11.357,9.638],[-11.376,9.639],[-11.373,9.648],[-11.433,9.651],[-11.447,9.636],[-11.509,9.64],[-11.513,9.666],[-11.525,9.666],[-11.597,9.645],[-11.605,9.647],[-11.609,9.671],[-11.637,9.669],[-11.63,9.71],[-11.687,9.751],[-11.676,9.779],[-11.687,9.807],[-11.701,9.824],[-11.73,9.81],[-11.738,9.828],[-11.754,9.839],[-11.751,9.855],[-11.761,9.89],[-11.754,9.923],[-11.764,9.963],[-11.756,9.972],[-11.753,9.999],[-11.208,10.0],[-11.211,9.988],[-11.162,9.953],[-11.155,9.871],[-11.133,9.855],[-11.097,9.86],[-11.091,9.845],[-11.065,9.829],[-11.063,9.814],[-11.044,9.82],[-11.038,9.788],[-11.028,9.787],[-10.993,9.753],[-10.958,9.662],[-10.949,9.654],[-10.921,9.655],[-10.923,9.638],[-10.904,9.596],[-10.878,9.591],[-10.885,9.587],[-10.866,9.567],[-10.862,9.544],[-10.869,9.538],[-10.855,9.537],[-10.851,9.525],[-10.825,9.515],[-10.837,9.5],[-10.849,9.498],[-10.836,9.471],[-10.846,9.452],[-10.782,9.402],[-10.73,9.382],[-10.718,9.35],[-10.652,9.309],[-10.656,9.293],[-10.636,9.277],[-10.658,9.221],[-10.656,9.199],[-10.704,9.152],[-10.71,9.134],[-10.719,9.135],[-10.709,9.121],[-10.724,9.113],[-10.728,9.083],[-10.728,9.082]]]]}},{"type":"Feature","properties":{"NEW_DIST":"Kailahun","NEW_PROV":"Eastern","CS_Pro_Num":1,"CS_Pro_Nam":"Eastern","CS_Dis_Num":11,"CS_Dis_Nam":"Kailahun","layer":"Kailahun District"},"geometry":{"type":"MultiPolygon","coordinates":[[[[-10.709,7.72],[-10.727,7.687],[-10.751,7.668],[-10.747,7.662],[-10.768,7.646],[-10.776,7.654],[-10.775,7.638],[-10.793,7.615],[-10.811,7.614],[-10.843,7.644],[-10.913,7.651],[-10.918,7.675],[-10.931,7.686],[-10.932,7.704],[-10.908,7.747],[-10.909,7.761],[-10.926,7.768],[-10.929,7.758],[-10.945,7.762],[-10.964,7.801],[-10.982,7.799],[-10.995,7.818],[-11.022,7.875],[-11.037,7.87],[-11.043,7.876],[-11.017,7.928],[-11.011,7.963],[-10.994,7.98],[-10.955,8.068],[-10.964,8.084],[-10.945,8.091],[-10.887,8.168],[-10.893,8.175],[-10.888,8.201],[-10.874,8.214],[-10.855,8.273],[-10.869,8.293],[-10.903,8.286],[-10.907,8.291],[-10.868,8.337],[-10.873,8.37],[-10.855,8.392],[-10.844,8.392],[-10.848,8.403],[-10.838,8.411],[-10.743,8.415],[-10.724,8.443],[-10.699,8.442],[-10.696,8.45],[-10.65,8.466],[-10.64,8.443],[-10.651,8.424],[-10.64,8.397],[-10.648,8.385],[-10.664,8.384],[-10.678,8.373],[-10.702,8.281],[-10.685,8.287],[-10.683,8.315],[-10.659,8.351],[-10.623,8.337],[-10.588,8.338],[-10.571,8.309],[-10.541,8.307],[-10.486,8.355],[-10.477,8.377],[-10.436,8.407],[-10.413,8.441],[-10.399,8.447],[-10.383,8.493],[-10.358,8.483],[-10.321,8.506],[-10.315,8.497],[-10.278,8.487],[-10.281,8.465],[-10.271,8.445],[-10.281,8.43],[-10.274,8.421],[-10.278,8.396],[-10.294,8.365],[-10.289,8.336],[-10.297,8.329],[-10.301,8.297],[-10.319,8.284],[-10.296,8.22],[-10.303,8.198],[-10.319,8.196],[-10.353,8.15],[-10.379,8.167],[-10.391,8.157],[-10.389,8.15],[-10.426,8.15],[-10.449,8.159],[-10.499,8.146],[-10.527,8.126],[-10.531,8.109],[-10.575,8.049],[-10.605,8.041],[-10.607,7.775],[-10.658,7.765],[-10.661,7.753],[-10.691,7.743],[-10.708,7.729],[-10.706,7.722],[-10.709,7.72]]]]}},{"type":"Feature","properties":{"NEW_DIST":"Kambia","NEW_PROV":"North Western","CS_Pro_Num":5,"CS_Pro_Nam":"North Western","CS_Dis_Num":22,"CS_Dis_Nam":"Kambia","layer":"Kambia District"},"geometry":{"type":"MultiPolygon","coordinates":[[[[-12.926,8.844],[-12.963,8.837],[-13.002,8.854],[-13.056,8.845],[-13.146,8.853],[-13.2,8.89],[-13.179,8.891],[-13.18,8.896],[-13.148,8.892],[-13.111,8.927],[-13.085,8.928],[-13.128,8.932],[-13.161,8.907],[-13.183,8.908],[-13.197,8.913],[-13.231,8.948],[-13.233,8.96],[-13.238,8.946],[-13.25,8.943],[-13.256,8.975],[-13.257,8.951],[-13.291,8.951],[-13.297,8.963],[-13.289,9.0],[-13.309,9.045],[-13.29,9.062],[-13.2,9.098],[-13.178,9.098],[-13.142,9.057],[-13.12,9.049],[-13.099,9.051],[-13.073,9.083],[-13.053,9.085],[-13.054,9.08],[-13.04,9.098],[-12.999,9.123],[-12.98,9.168],[-12.956,9.184],[-12.955,9.198],[-12.97,9.228],[-12.957,9.238],[-12.95,9.258],[-12.954,9.279],[-12.942,9.289],[-12.921,9.282],[-12.908,9.259],[-12.883,9.273],[-12.888,9.281],[-12.879,9.292],[-12.861,9.292],[-12.847,9.278],[-12.839,9.291],[-12.823,9.295],[-12.81,9.289],[-12.788,9.301],[-12.787,9.316],[-12.772,9.335],[-12.775,9.344],[-12.748,9.35],[-12.756,9.393],[-12.739,9.4],[-12.707,9.389],[-12.706,9.411],[-12.693,9.418],[-12.684,9.409],[-12.684,9.431],[-12.675,9.438],[-12.681,9.443],[-12.677,9.462],[-12.645,9.512],[-12.655,9.537],[-12.641,9.549],[-12.629,9.549],[-12.634,9.567],[-12.615,9.607],[-12.585,9.599],[-12.58,9.587],[-12.549,9.581],[-12.537,9.563],[-12.506,9.549],[-12.476,9.52],[-12.418,9.485],[-12.416,9.459],[-12.4,9.44],[-12.404,9.417],[-12.382,9.412],[-12.37,9.4],[-12.376,9.375],[-12.366,9.355],[-12.379,9.351],[-12.388,9.364],[-12.413,9.332],[-12.41,9.315],[-12.387,9.294],[-12.39,9.287],[-12.403,9.285],[-12.429,9.314],[-12.431,9.286],[-12.44,9.271],[-12.437,9.253],[-12.465,9.269],[-12.49,9.273],[-12.49,9.253],[-12.501,9.246],[-12.518,9.273],[-12.532,9.228],[-12.546,9.225],[-12.553,9.23],[-12.546,9.249],[-12.563,9.25],[-12.56,9.227],[-12.597,9.216],[-12.604,9.234],[-12.611,9.234],[-12.622,9.212],[-12.635,9.204],[-12.646,9.209],[-12.659,9.199],[-12.652,9.166],[-12.662,9.133],[-12.67,9.133],[-12.664,9.113],[-12.695,9.107],[-12.73,9.062],[-12.737,9.046],[-12.733,9.026],[-12.758,9.007],[-12.744,8.982],[-12.781,9.0],[-12.812,9.032],[-12.839,9.015],[-12.85,9.017],[-12.865,8.973],[-12.862,8.953],[-12.896,8.944],[-12.931,8.914],[-12.914,8.893],[-12.913,8.848],[-12.922,8.844],[-12.926,8.844]],[[-13.268,8.953],[-13.267,8.953],[-13.267,8.954],[-13.267,8.953],[-13.268,8.953]],[[-12.673,9.425],[-12.673,9.425],[-12.672,9.426],[-12.673,9.425],[-12.673,9.425]]],[[[-13.264,8.852],[-13.273,8.855],[-13.263,8.853],[-13.264,8.852]]],[[[-13.273,8.873],[-13.271,8.865],[-13.278,8.864],[-13.274,8.876],[-13.273,8.873]]],[[[-13.235,8.888],[-13.235,8.887],[-13.235,8.888],[-13.235,8.889],[-13.234,8.888],[-13.235,8.888]]],[[[-13.257,8.893],[-13.248,8.88],[-13.236,8.881],[-13.25,8.868],[-13.258,8.874],[-13.259,8.894],[-13.257,8.893]]],[[[-13.237,8.886],[-13.238,8.886],[-13.24,8.886],[-13.241,8.887],[-13.24,8.888],[-13.239,8.887],[-13.238,8.887],[-13.237,8.887],[-13.237,8.886]]],[[[-13.245,8.889],[-13.243,8.889],[-13.243,8.889],[-13.242,8.888],[-13.243,8.888],[-13.244,8.888],[-13.245,8.888],[-13.245,8.889]]],[[[-13.235,8.89],[-13.235,8.89],[-13.236,8.89],[-13.237,8.892],[-13.237,8.893],[-13.235,8.891],[-13.235,8.891],[-13.235,8.891],[-13.234,8.891],[-13.234,8.89],[-13.234,8.89],[-13.234,8.889],[-13.234,8.889],[-13.235,8.889],[-13.235,8.889],[-13.235,8.89]]],[[[-13.267,8.892],[-13.267,8.892],[-13.268,8.892],[-13.269,8.892],[-13.27,8.893],[-13.269,8.894],[-13.269,8.894],[-13.269,8.896],[-13.268,8.896],[-13.267,8.896],[-13.266,8.896],[-13.266,8.896],[-13.266,8.895],[-13.267,8.894],[-13.267,8.893],[-13.267,8.893],[-13.267,8.892]]],[[[-13.273,8.896],[-13.273,8.896],[-13.275,8.896],[-13.274,8.897],[-13.274,8.897],[-13.273,8.897],[-13.273,8.897],[-13.273,8.896]]],[[[-13.195,8.898],[-13.186,8.903],[-13.194,8.898],[-13.195,8.898]]],[[[-13.245,8.895],[-13.238,8.889],[-13.246,8.896],[-13.245,8.895]]],[[[-13.232,8.915],[-13.221,8.92],[-13.198,8.897],[-13.233,8.882],[-13.227,8.887],[-13.24,8.899],[-13.233,8.914],[-13.232,8.915]]],[[[-13.27,8.902],[-13.278,8.905],[-13.27,8.903],[-13.27,8.902]]],[[[-13.157,8.904],[-13.165,8.903],[-13.157,8.905],[-13.157,8.904]]],[[[-13.144,8.898],[-13.138,8.92],[-13.118,8.927],[-13.142,8.898],[-13.144,8.898]]],[[[-13.196,8.907],[-13.197,8.906],[-13.197,8.906],[-13.198,8.906],[-13.2,8.906],[-13.2,8.906],[-13.201,8.906],[-13.202,8.907],[-13.203,8.907],[-13.204,8.908],[-13.205,8.909],[-13.205,8.91],[-13.206,8.912],[-13.206,8.914],[-13.205,8.913],[-13.203,8.913],[-13.202,8.912],[-13.2,8.91],[-13.198,8.908],[-13.196,8.907],[-13.196,8.907]]],[[[-13.231,8.924],[-13.232,8.925],[-13.234,8.925],[-13.235,8.925],[-13.234,8.926],[-13.229,8.925],[-13.228,8.925],[-13.228,8.924],[-13.228,8.923],[-13.231,8.924]]]]}},{"type":"Feature","properties":{"NEW_DIST":"Karene","NEW_PROV":"North Western","CS_Pro_Num":5,"CS_Pro_Nam":"North Western","CS_Dis_Num":52,"CS_Dis_Nam":"Karene","layer":"Karene District"},"geometry":{"type":"MultiPolygon","coordinates":[[[[-12.315,8.899],[-12.317,8.908],[-12.354,8.902],[-12.317,8.825],[-12.326,8.801],[-12.337,8.793],[-12.358,8.799],[-12.37,8.791],[-12.365,8.762],[-12.38,8.748],[-12.415,8.757],[-12.46,8.729],[-12.499,8.737],[-12.501,8.725],[-12.516,8.724],[-12.519,8.71],[-12.54,8.703],[-12.561,8.704],[-12.561,8.73],[-12.549,8.744],[-12.559,8.757],[-12.576,8.76],[-12.561,8.771],[-12.565,8.806],[-12.545,8.824],[-12.542,8.863],[-12.55,8.882],[-12.584,8.89],[-12.62,8.873],[-12.65,8.894],[-12.668,8.886],[-12.686,8.852],[-12.706,8.866],[-12.703,8.888],[-12.712,8.904],[-12.691,8.924],[-12.692,8.933],[-12.675,8.936],[-12.632,8.976],[-12.615,9.007],[-12.636,9.018],[-12.66,9.001],[-12.672,9.015],[-12.692,8.999],[-12.705,9.031],[-12.729,9.008],[-12.735,9.015],[-12.728,9.02],[-12.738,9.022],[-12.73,9.034],[-12.737,9.046],[-12.709,9.092],[-12.695,9.107],[-12.664,9.113],[-12.67,9.133],[-12.662,9.133],[-12.652,9.164],[-12.659,9.199],[-12.646,9.209],[-12.635,9.204],[-12.622,9.212],[-12.611,9.234],[-12.604,9.234],[-12.597,9.216],[-12.56,9.227],[-12.563,9.25],[-12.546,9.249],[-12.553,9.23],[-12.546,9.225],[-12.532,9.228],[-12.518,9.273],[-12.501,9.246],[-12.49,9.253],[-12.49,9.273],[-12.465,9.269],[-12.437,9.253],[-12.44,9.271],[-12.431,9.286],[-12.429,9.314],[-12.406,9.287],[-12.39,9.287],[-12.387,9.294],[-12.41,9.315],[-12.413,9.332],[-12.388,9.364],[-12.379,9.351],[-12.366,9.355],[-12.376,9.375],[-12.37,9.4],[-12.382,9.412],[-12.404,9.417],[-12.4,9.44],[-12.416,9.459],[-12.423,9.492],[-12.537,9.563],[-12.549,9.581],[-12.58,9.587],[-12.587,9.6],[-12.581,9.635],[-12.588,9.66],[-12.582,9.666],[-12.572,9.657],[-12.562,9.704],[-12.535,9.716],[-12.531,9.725],[-12.53,9.712],[-12.517,9.709],[-12.527,9.737],[-12.524,9.745],[-12.504,9.746],[-12.509,9.756],[-12.517,9.754],[-12.498,9.812],[-12.489,9.812],[-12.487,9.83],[-12.499,9.836],[-12.495,9.848],[-12.42,9.896],[-12.379,9.897],[-12.358,9.889],[-12.344,9.892],[-12.338,9.903],[-12.221,9.932],[-12.216,9.909],[-12.204,9.9],[-12.144,9.871],[-12.145,9.877],[-12.125,9.869],[-12.075,9.901],[-11.917,9.971],[-11.898,9.998],[-11.909,9.944],[-11.892,9.915],[-11.906,9.896],[-11.885,9.883],[-11.892,9.846],[-11.876,9.771],[-11.873,9.714],[-11.883,9.701],[-11.914,9.704],[-11.977,9.689],[-12.007,9.68],[-12.007,9.668],[-12.027,9.672],[-12.031,9.66],[-12.043,9.665],[-12.089,9.644],[-12.108,9.627],[-12.115,9.603],[-12.135,9.59],[-12.121,9.58],[-12.071,9.578],[-12.061,9.568],[-12.058,9.547],[-12.029,9.549],[-11.97,9.495],[-11.984,9.422],[-11.98,9.411],[-11.996,9.397],[-11.991,9.373],[-12.051,9.368],[-12.095,9.38],[-12.101,9.36],[-12.094,9.351],[-12.126,9.318],[-12.189,9.332],[-12.21,9.35],[-12.211,9.369],[-12.232,9.348],[-12.261,9.34],[-12.259,9.328],[-12.232,9.314],[-12.244,9.292],[-12.234,9.287],[-12.26,9.27],[-12.255,9.265],[-12.227,9.244],[-12.209,9.248],[-12.149,9.239],[-12.175,9.217],[-12.182,9.188],[-12.215,9.163],[-12.216,9.146],[-12.235,9.134],[-12.234,9.119],[-12.267,9.096],[-12.321,9.083],[-12.326,9.096],[-12.351,9.096],[-12.37,9.069],[-12.389,9.069],[-12.385,9.056],[-12.359,9.041],[-12.364,9.028],[-12.344,9.007],[-12.335,8.968],[-12.284,8.961],[-12.28,8.952],[-12.262,8.954],[-12.276,8.946],[-12.286,8.923],[-12.278,8.908],[-12.305,8.891],[-12.314,8.896],[-12.315,8.899]]]]}},{"type":"Feature","properties":{"NEW_DIST":"Kenema","NEW_PROV":"Eastern","CS_Pro_Num":1,"CS_Pro_Nam":"Eastern","CS_Dis_Num":12,"CS_Dis_Nam":"Kenema","layer":"Kenema District"},"geometry":{"type":"MultiPolygon","coordinates":[[[[-11.108,7.378],[-11.143,7.341],[-11.251,7.376],[-11.341,7.431],[-11.364,7.504],[-11.362,7.559],[-11.332,7.588],[-11.311,7.597],[-11.353,7.597],[-11.364,7.612],[-11.373,7.655],[-11.399,7.628],[-11.45,7.544],[-11.508,7.544],[-11.489,7.62],[-11.517,7.651],[-11.515,7.664],[-11.488,7.69],[-11.483,7.713],[-11.473,7.714],[-11.455,7.693],[-11.448,7.698],[-11.439,7.69],[-11.439,7.701],[-11.425,7.704],[-11.414,7.727],[-11.415,7.749],[-11.404,7.754],[-11.401,7.769],[-11.425,7.823],[-11.451,7.809],[-11.469,7.781],[-11.488,7.782],[-11.492,7.791],[-11.482,7.799],[-11.48,7.822],[-11.485,7.832],[-11.474,7.857],[-11.447,7.874],[-11.447,7.903],[-11.425,7.917],[-11.417,7.91],[-11.384,7.908],[-11.39,7.936],[-11.369,7.943],[-11.354,7.96],[-11.367,7.993],[-11.383,8.003],[-11.387,8.017],[-11.378,8.026],[-11.336,8.024],[-11.335,8.096],[-11.346,8.129],[-11.403,8.137],[-11.404,8.163],[-11.382,8.194],[-11.402,8.216],[-11.4,8.228],[-11.438,8.236],[-11.462,8.268],[-11.469,8.314],[-11.478,8.328],[-11.5,8.35],[-11.526,8.355],[-11.546,8.37],[-11.554,8.431],[-11.59,8.468],[-11.592,8.489],[-11.583,8.49],[-11.59,8.519],[-11.58,8.527],[-11.551,8.526],[-11.533,8.539],[-11.492,8.534],[-11.459,8.549],[-11.42,8.553],[-11.388,8.548],[-11.38,8.531],[-11.358,8.552],[-11.339,8.526],[-11.334,8.497],[-11.316,8.52],[-11.285,8.529],[-11.274,8.515],[-11.258,8.513],[-11.246,8.466],[-11.231,8.449],[-11.251,8.431],[-11.25,8.401],[-11.233,8.363],[-11.24,8.364],[-11.242,8.354],[-11.224,8.334],[-11.193,8.364],[-11.149,8.355],[-11.137,8.34],[-11.101,8.346],[-11.086,8.339],[-11.072,8.348],[-11.061,8.334],[-11.051,8.335],[-11.025,8.355],[-10.991,8.371],[-10.969,8.372],[-10.948,8.388],[-10.894,8.376],[-10.855,8.392],[-10.874,8.367],[-10.868,8.337],[-10.907,8.291],[-10.903,8.286],[-10.869,8.293],[-10.855,8.273],[-10.874,8.214],[-10.887,8.205],[-10.893,8.175],[-10.887,8.168],[-10.945,8.091],[-10.964,8.084],[-10.955,8.068],[-10.987,7.993],[-11.011,7.963],[-11.017,7.928],[-11.043,7.876],[-11.037,7.87],[-11.022,7.875],[-10.996,7.819],[-10.982,7.799],[-10.964,7.801],[-10.945,7.762],[-10.929,7.758],[-10.926,7.768],[-10.909,7.761],[-10.908,7.747],[-10.932,7.704],[-10.931,7.686],[-10.918,7.675],[-10.913,7.651],[-10.84,7.643],[-10.811,7.614],[-10.79,7.617],[-10.789,7.601],[-10.801,7.591],[-10.817,7.596],[-10.827,7.562],[-10.834,7.564],[-10.844,7.549],[-10.887,7.527],[-10.922,7.497],[-10.935,7.513],[-10.969,7.487],[-10.976,7.472],[-11.005,7.455],[-11.01,7.442],[-11.027,7.433],[-11.033,7.437],[-11.033,7.427],[-11.059,7.404],[-11.083,7.391],[-11.101,7.391],[-11.105,7.382],[-11.108,7.378]]]]}},{"type":"Feature","properties":{"NEW_DIST":"Koinadugu","NEW_PROV":"Northern","CS_Pro_Num":2,"CS_Pro_Nam":"Northern","CS_Dis_Num":23,"CS_Dis_Nam":"Koinadugu","layer":"Koinadugu District"},"geometry":{"type":"MultiPolygon","coordinates":[[[[-11.347,8.724],[-11.347,8.691],[-11.334,8.665],[-11.351,8.66],[-11.364,8.667],[-11.377,8.69],[-11.398,8.772],[-11.445,8.864],[-11.475,8.84],[-11.554,8.849],[-11.56,8.86],[-11.552,8.86],[-11.541,8.894],[-11.521,8.918],[-11.518,8.913],[-11.509,8.922],[-11.51,8.911],[-11.494,8.904],[-11.484,8.932],[-11.475,8.922],[-11.466,8.958],[-11.457,8.966],[-11.458,8.985],[-11.444,8.986],[-11.436,9.014],[-11.45,9.035],[-11.441,9.125],[-11.445,9.156],[-11.458,9.176],[-11.471,9.185],[-11.495,9.186],[-11.511,9.166],[-11.555,9.148],[-11.562,9.152],[-11.58,9.13],[-11.577,9.12],[-11.646,9.054],[-11.653,9.079],[-11.669,9.094],[-11.717,9.113],[-11.706,9.193],[-11.718,9.291],[-11.743,9.268],[-11.751,9.245],[-11.796,9.244],[-11.801,9.23],[-11.832,9.229],[-11.841,9.253],[-11.851,9.25],[-11.854,9.26],[-11.865,9.261],[-11.86,9.268],[-11.837,9.266],[-11.848,9.309],[-11.808,9.347],[-11.825,9.361],[-11.812,9.398],[-11.841,9.431],[-11.841,9.446],[-11.876,9.473],[-11.88,9.488],[-11.867,9.508],[-11.882,9.521],[-11.89,9.514],[-11.885,9.539],[-11.95,9.534],[-11.97,9.495],[-12.029,9.549],[-12.058,9.547],[-12.061,9.568],[-12.071,9.578],[-12.121,9.58],[-12.135,9.59],[-12.115,9.603],[-12.108,9.627],[-12.089,9.644],[-12.043,9.665],[-12.031,9.66],[-12.027,9.672],[-12.007,9.668],[-12.007,9.68],[-11.977,9.689],[-11.914,9.704],[-11.883,9.701],[-11.873,9.714],[-11.876,9.771],[-11.892,9.846],[-11.885,9.883],[-11.906,9.896],[-11.892,9.915],[-11.909,9.944],[-11.895,10.0],[-11.752,10.001],[-11.764,9.963],[-11.754,9.923],[-11.761,9.891],[-11.751,9.855],[-11.754,9.839],[-11.738,9.828],[-11.73,9.81],[-11.701,9.824],[-11.687,9.807],[-11.676,9.779],[-11.687,9.751],[-11.63,9.71],[-11.637,9.669],[-11.609,9.671],[-11.605,9.647],[-11.513,9.666],[-11.51,9.64],[-11.447,9.636],[-11.428,9.651],[-11.373,9.648],[-11.376,9.639],[-11.354,9.636],[-11.343,9.601],[-11.369,9.567],[-11.327,9.534],[-11.335,9.491],[-11.383,9.476],[-11.442,9.522],[-11.459,9.545],[-11.496,9.52],[-11.536,9.522],[-11.538,9.499],[-11.556,9.48],[-11.559,9.463],[-11.551,9.461],[-11.539,9.433],[-11.541,9.41],[-11.532,9.408],[-11.542,9.377],[-11.465,9.375],[-11.445,9.342],[-11.449,9.311],[-11.402,9.276],[-11.387,9.256],[-11.418,9.178],[-11.386,9.178],[-11.385,9.19],[-11.34,9.19],[-11.325,9.203],[-11.259,9.209],[-11.249,9.216],[-11.244,9.198],[-11.251,9.192],[-11.251,9.154],[-11.238,9.146],[-11.225,9.149],[-11.209,9.128],[-11.179,9.179],[-11.093,9.082],[-11.123,9.051],[-11.153,9.052],[-11.156,9.046],[-11.149,9.019],[-11.125,8.992],[-11.127,8.971],[-11.146,8.959],[-11.146,8.94],[-11.162,8.923],[-11.185,8.938],[-11.2,8.93],[-11.221,8.936],[-11.237,8.93],[-11.258,8.907],[-11.248,8.905],[-11.269,8.862],[-11.296,8.854],[-11.306,8.801],[-11.34,8.775],[-11.347,8.725],[-11.347,8.724]],[[-11.604,9.644],[-11.603,9.644],[-11.603,9.644],[-11.604,9.644]]]]}},{"type":"Feature","properties":{"NEW_DIST":"Kono","NEW_PROV":"Eastern","CS_Pro_Num":1,"CS_Pro_Nam":"Eastern","CS_Dis_Num":13,"CS_Dis_Nam":"Kono","layer":"Kono District"},"geometry":{"type":"MultiPolygon","coordinates":[[[[-11.025,8.354],[-11.061,8.334],[-11.072,8.348],[-11.086,8.339],[-11.101,8.346],[-11.137,8.34],[-11.149,8.355],[-11.193,8.364],[-11.227,8.335],[-11.242,8.354],[-11.24,8.364],[-11.233,8.363],[-11.249,8.396],[-11.251,8.422],[-11.251,8.431],[-11.231,8.449],[-11.246,8.466],[-11.258,8.513],[-11.274,8.515],[-11.285,8.529],[-11.312,8.523],[-11.326,8.5],[-11.338,8.498],[-11.339,8.526],[-11.358,8.552],[-11.345,8.558],[-11.337,8.575],[-11.353,8.627],[-11.351,8.66],[-11.334,8.665],[-11.349,8.701],[-11.348,8.739],[-11.34,8.751],[-11.34,8.775],[-11.303,8.807],[-11.306,8.821],[-11.293,8.859],[-11.269,8.862],[-11.248,8.905],[-11.258,8.907],[-11.237,8.93],[-11.223,8.936],[-11.2,8.93],[-11.185,8.938],[-11.162,8.923],[-11.145,8.942],[-11.146,8.959],[-11.124,8.978],[-11.137,9.01],[-11.122,9.039],[-11.072,9.076],[-11.055,9.077],[-11.012,9.057],[-11.005,9.061],[-10.913,9.008],[-10.932,8.986],[-10.914,8.958],[-10.896,8.974],[-10.874,8.949],[-10.853,8.955],[-10.836,8.938],[-10.807,8.934],[-10.781,8.944],[-10.756,8.933],[-10.741,8.939],[-10.729,8.931],[-10.674,8.935],[-10.677,8.96],[-10.694,8.966],[-10.678,9.015],[-10.642,9.025],[-10.622,9.042],[-10.574,9.046],[-10.592,8.989],[-10.575,8.921],[-10.575,8.887],[-10.559,8.845],[-10.561,8.804],[-10.549,8.798],[-10.541,8.804],[-10.519,8.783],[-10.512,8.741],[-10.496,8.741],[-10.506,8.736],[-10.496,8.724],[-10.499,8.712],[-10.475,8.696],[-10.477,8.683],[-10.472,8.687],[-10.465,8.679],[-10.476,8.657],[-10.471,8.649],[-10.512,8.614],[-10.536,8.617],[-10.56,8.599],[-10.575,8.598],[-10.574,8.573],[-10.586,8.569],[-10.596,8.547],[-10.615,8.542],[-10.627,8.505],[-10.62,8.492],[-10.633,8.491],[-10.643,8.453],[-10.65,8.466],[-10.658,8.464],[-10.696,8.45],[-10.699,8.442],[-10.724,8.443],[-10.743,8.415],[-10.803,8.408],[-10.835,8.412],[-10.848,8.403],[-10.844,8.392],[-10.87,8.391],[-10.894,8.376],[-10.948,8.388],[-10.962,8.375],[-11.025,8.355],[-11.025,8.354]]]]}},{"type":"Feature","properties":{"NEW_DIST":"Moyamba","NEW_PROV":"Southern","CS_Pro_Num":3,"CS_Pro_Nam":"Southern","CS_Dis_Num":33,"CS_Dis_Nam":"Moyamba","layer":"Moyamba District"},"geometry":{"type":"MultiPolygon","coordinates":[[[[-12.144,7.664],[-12.16,7.67],[-12.186,7.664],[-12.214,7.686],[-12.245,7.692],[-12.296,7.763],[-12.298,7.801],[-12.352,7.808],[-12.371,7.779],[-12.389,7.772],[-12.392,7.758],[-12.408,7.766],[-12.444,7.754],[-12.46,7.725],[-12.471,7.729],[-12.483,7.772],[-12.495,7.751],[-12.589,7.684],[-12.682,7.706],[-12.716,7.702],[-12.743,7.726],[-12.755,7.748],[-12.764,7.745],[-12.784,7.76],[-12.794,7.803],[-12.807,7.789],[-12.85,7.81],[-12.908,7.87],[-12.929,7.872],[-12.961,7.915],[-12.928,7.923],[-12.903,7.944],[-12.848,7.94],[-12.892,7.964],[-12.906,8.038],[-12.904,8.071],[-12.893,8.09],[-12.914,8.093],[-12.945,8.155],[-12.993,8.209],[-12.975,8.262],[-12.967,8.265],[-12.963,8.253],[-12.951,8.249],[-12.938,8.265],[-12.924,8.26],[-12.904,8.277],[-12.883,8.28],[-12.893,8.289],[-12.883,8.311],[-12.873,8.302],[-12.862,8.309],[-12.868,8.326],[-12.848,8.337],[-12.855,8.352],[-12.838,8.358],[-12.84,8.373],[-12.826,8.374],[-12.83,8.397],[-12.816,8.398],[-12.809,8.388],[-12.79,8.392],[-12.765,8.373],[-12.753,8.352],[-12.73,8.347],[-12.719,8.354],[-12.719,8.369],[-12.7,8.364],[-12.679,8.371],[-12.675,8.364],[-12.67,8.376],[-12.653,8.375],[-12.645,8.354],[-12.604,8.341],[-12.592,8.31],[-12.516,8.287],[-12.464,8.292],[-12.436,8.314],[-12.397,8.317],[-12.371,8.353],[-12.344,8.352],[-12.331,8.335],[-12.301,8.328],[-12.294,8.319],[-12.27,8.349],[-12.247,8.354],[-12.23,8.344],[-12.219,8.353],[-12.169,8.361],[-12.166,8.339],[-12.134,8.32],[-12.132,8.305],[-12.082,8.277],[-12.056,8.248],[-12.039,8.25],[-12.032,8.237],[-12.04,8.284],[-12.035,8.297],[-12.05,8.291],[-12.067,8.319],[-12.044,8.351],[-12.043,8.364],[-12.036,8.37],[-12.028,8.358],[-12.024,8.37],[-12.008,8.373],[-11.996,8.391],[-11.996,8.376],[-11.988,8.37],[-11.931,8.349],[-11.915,8.361],[-11.866,8.35],[-11.842,8.361],[-11.823,8.358],[-11.818,8.331],[-11.791,8.343],[-11.782,8.285],[-11.816,8.253],[-11.804,8.244],[-11.801,8.223],[-11.808,8.169],[-11.816,8.153],[-11.845,8.155],[-11.875,8.141],[-11.916,8.068],[-11.882,8.029],[-11.894,8.008],[-11.882,7.994],[-11.894,7.989],[-11.91,8.001],[-12.009,8.014],[-12.061,7.972],[-12.091,7.98],[-12.126,7.977],[-12.137,7.966],[-12.142,7.956],[-12.133,7.923],[-12.136,7.877],[-12.147,7.856],[-12.136,7.843],[-12.137,7.799],[-12.129,7.791],[-12.137,7.787],[-12.137,7.765],[-12.109,7.72],[-12.117,7.687],[-12.106,7.677],[-12.122,7.663],[-12.143,7.664],[-12.144,7.664]],[[-12.677,7.704],[-12.677,7.704],[-12.677,7.71],[-12.677,7.705],[-12.677,7.704]]],[[[-12.987,7.911],[-12.995,7.909],[-12.986,7.911],[-12.987,7.911]]]]}},{"type":"Feature","properties":{"NEW_DIST":"Port Loko","NEW_PROV":"North Western","CS_Pro_Num":5,"CS_Pro_Nam":"North Western","CS_Dis_Num":24,"CS_Dis_Nam":"Port Loko","layer":"Port Loko District"},"geometry":{"type":"MultiPolygon","coordinates":[[[[-13.249,8.805],[-13.245,8.823],[-13.205,8.859],[-13.208,8.864],[-13.158,8.843],[-13.148,8.855],[-13.074,8.845],[-13.012,8.855],[-12.963,8.837],[-12.913,8.848],[-12.914,8.893],[-12.931,8.914],[-12.896,8.944],[-12.862,8.953],[-12.865,8.973],[-12.85,9.017],[-12.839,9.015],[-12.82,9.03],[-12.812,9.032],[-12.781,9.0],[-12.744,8.982],[-12.758,9.007],[-12.738,9.022],[-12.728,9.02],[-12.735,9.015],[-12.729,9.008],[-12.705,9.031],[-12.692,8.999],[-12.679,9.014],[-12.666,9.014],[-12.66,9.001],[-12.636,9.018],[-12.615,9.008],[-12.619,8.991],[-12.667,8.942],[-12.692,8.933],[-12.691,8.924],[-12.713,8.902],[-12.703,8.888],[-12.706,8.866],[-12.686,8.852],[-12.668,8.886],[-12.65,8.894],[-12.62,8.873],[-12.584,8.89],[-12.55,8.882],[-12.542,8.863],[-12.545,8.824],[-12.566,8.803],[-12.562,8.768],[-12.576,8.763],[-12.549,8.744],[-12.561,8.73],[-12.561,8.704],[-12.519,8.71],[-12.516,8.724],[-12.501,8.725],[-12.499,8.737],[-12.46,8.729],[-12.415,8.757],[-12.38,8.748],[-12.365,8.762],[-12.354,8.755],[-12.337,8.735],[-12.32,8.73],[-12.324,8.724],[-12.315,8.712],[-12.321,8.707],[-12.334,8.719],[-12.334,8.71],[-12.364,8.693],[-12.378,8.707],[-12.391,8.68],[-12.388,8.67],[-12.401,8.668],[-12.39,8.647],[-12.347,8.63],[-12.328,8.633],[-12.32,8.598],[-12.29,8.574],[-12.3,8.557],[-12.323,8.541],[-12.336,8.543],[-12.377,8.504],[-12.412,8.491],[-12.446,8.49],[-12.5,8.461],[-12.535,8.453],[-12.546,8.432],[-12.565,8.445],[-12.582,8.482],[-12.602,8.497],[-12.617,8.43],[-12.63,8.408],[-12.633,8.375],[-12.648,8.367],[-12.66,8.376],[-12.67,8.376],[-12.675,8.364],[-12.679,8.371],[-12.7,8.364],[-12.719,8.369],[-12.719,8.354],[-12.743,8.349],[-12.79,8.392],[-12.809,8.388],[-12.816,8.398],[-12.83,8.397],[-12.826,8.374],[-12.84,8.373],[-12.838,8.359],[-12.855,8.352],[-12.848,8.337],[-12.868,8.326],[-12.862,8.309],[-12.873,8.302],[-12.883,8.311],[-12.893,8.289],[-12.883,8.28],[-12.904,8.277],[-12.914,8.271],[-12.913,8.263],[-12.933,8.259],[-12.933,8.27],[-12.912,8.296],[-12.925,8.329],[-12.918,8.365],[-12.963,8.371],[-13.005,8.366],[-13.021,8.383],[-13.038,8.37],[-13.068,8.385],[-13.08,8.411],[-13.066,8.413],[-13.075,8.428],[-13.088,8.419],[-13.132,8.437],[-13.135,8.449],[-13.109,8.467],[-13.106,8.486],[-13.083,8.487],[-13.065,8.499],[-13.05,8.528],[-13.022,8.516],[-13.042,8.533],[-13.022,8.565],[-13.003,8.553],[-12.992,8.56],[-12.981,8.554],[-12.988,8.559],[-12.976,8.564],[-12.964,8.53],[-12.956,8.533],[-12.942,8.522],[-12.945,8.529],[-12.913,8.547],[-12.916,8.553],[-12.957,8.57],[-12.962,8.579],[-12.947,8.588],[-12.949,8.594],[-12.967,8.592],[-12.994,8.602],[-13.018,8.596],[-13.023,8.603],[-13.045,8.591],[-13.054,8.574],[-13.064,8.573],[-13.069,8.583],[-13.09,8.584],[-13.095,8.605],[-13.105,8.607],[-13.128,8.572],[-13.141,8.523],[-13.149,8.517],[-13.168,8.527],[-13.245,8.666],[-13.246,8.711],[-13.238,8.731],[-13.249,8.804],[-13.249,8.805]],[[-12.981,8.554],[-12.977,8.552],[-12.977,8.552],[-12.981,8.554]]],[[[-13.131,8.537],[-13.132,8.537],[-13.132,8.538],[-13.132,8.539],[-13.132,8.539],[-13.132,8.54],[-13.131,8.54],[-13.13,8.54],[-13.13,8.539],[-13.13,8.538],[-13.13,8.538],[-13.131,8.537]]],[[[-13.122,8.559],[-13.12,8.565],[-13.121,8.56],[-13.122,8.559]]],[[[-13.124,8.54],[-13.115,8.55],[-13.123,8.538],[-13.124,8.54]]],[[[-13.114,8.567],[-13.105,8.562],[-13.114,8.564],[-13.114,8.567]]],[[[-12.967,8.569],[-13.01,8.573],[-12.98,8.584],[-12.96,8.567],[-12.966,8.568],[-12.967,8.569]]],[[[-13.072,8.58],[-13.072,8.58],[-13.071,8.581],[-13.071,8.58],[-13.07,8.58],[-13.07,8.579],[-13.07,8.579],[-13.069,8.579],[-13.068,8.577],[-13.067,8.576],[-13.067,8.575],[-13.067,8.575],[-13.067,8.574],[-13.067,8.574],[-13.067,8.574],[-13.067,8.573],[-13.068,8.573],[-13.069,8.573],[-13.071,8.573],[-13.071,8.573],[-13.072,8.574],[-13.072,8.576],[-13.074,8.577],[-13.074,8.578],[-13.072,8.58],[-13.072,8.58]]],[[[-13.041,8.568],[-13.041,8.569],[-13.04,8.571],[-13.04,8.572],[-13.039,8.572],[-13.039,8.571],[-13.039,8.57],[-13.039,8.568],[-13.041,8.567],[-13.041,8.568]]],[[[-13.105,8.587],[-13.11,8.572],[-13.124,8.565],[-13.112,8.593],[-13.106,8.589],[-13.105,8.587]]],[[[-13.109,8.597],[-13.11,8.597],[-13.11,8.598],[-13.109,8.6],[-13.108,8.6],[-13.108,8.6],[-13.108,8.599],[-13.108,8.598],[-13.109,8.597],[-13.109,8.597]]],[[[-13.004,8.577],[-13.015,8.579],[-12.998,8.581],[-13.003,8.577],[-13.004,8.577]]],[[[-13.151,8.851],[-13.151,8.851],[-13.152,8.85],[-13.152,8.85],[-13.153,8.851],[-13.154,8.851],[-13.154,8.851],[-13.155,8.851],[-13.155,8.852],[-13.154,8.852],[-13.153,8.852],[-13.153,8.852],[-13.151,8.852],[-13.151,8.852],[-13.151,8.851]]],[[[-13.164,8.85],[-13.164,8.85],[-13.165,8.85],[-13.166,8.851],[-13.167,8.851],[-13.168,8.852],[-13.166,8.852],[-13.165,8.851],[-13.164,8.85]]],[[[-13.171,8.863],[-13.17,8.861],[-13.17,8.86],[-13.17,8.86],[-13.171,8.86],[-13.171,8.86],[-13.172,8.86],[-13.173,8.86],[-13.174,8.861],[-13.174,8.861],[-13.174,8.862],[-13.174,8.863],[-13.173,8.863],[-13.172,8.862],[-13.171,8.863]]],[[[-13.15,8.853],[-13.161,8.858],[-13.15,8.854],[-13.15,8.853]]],[[[-13.159,8.863],[-13.153,8.857],[-13.16,8.863],[-13.159,8.863]]],[[[-12.956,8.537],[-12.963,8.551],[-12.958,8.556],[-12.933,8.556],[-12.923,8.547],[-12.944,8.531],[-12.956,8.537]]]]}},{"type":"Feature","properties":{"NEW_DIST":"Pujehun","NEW_PROV":"Southern","CS_Pro_Num":3,"CS_Pro_Nam":"Southern","CS_Dis_Num":34,"CS_Dis_Nam":"Pujehun","layer":"Pujehun District"},"geometry":{"type":"MultiPolygon","coordinates":[[[[-11.421,6.951],[-11.42,6.938],[-11.438,6.942],[-11.458,6.924],[-11.505,6.926],[-11.595,6.969],[-11.662,7.039],[-11.734,7.083],[-11.96,7.193],[-11.937,7.229],[-11.923,7.213],[-11.915,7.218],[-11.899,7.21],[-11.883,7.259],[-11.88,7.281],[-11.9,7.299],[-11.902,7.338],[-11.888,7.349],[-11.878,7.394],[-11.889,7.401],[-11.88,7.418],[-11.898,7.44],[-11.894,7.461],[-11.887,7.464],[-11.895,7.485],[-11.862,7.487],[-11.857,7.507],[-11.872,7.529],[-11.862,7.539],[-11.824,7.528],[-11.824,7.538],[-11.848,7.561],[-11.843,7.57],[-11.827,7.585],[-11.807,7.585],[-11.798,7.594],[-11.792,7.586],[-11.769,7.602],[-11.746,7.638],[-11.743,7.663],[-11.732,7.668],[-11.719,7.666],[-11.722,7.647],[-11.715,7.634],[-11.742,7.586],[-11.715,7.548],[-11.716,7.561],[-11.694,7.583],[-11.694,7.598],[-11.675,7.629],[-11.615,7.637],[-11.602,7.626],[-11.581,7.628],[-11.558,7.669],[-11.532,7.677],[-11.511,7.669],[-11.517,7.651],[-11.489,7.62],[-11.508,7.544],[-11.453,7.542],[-11.399,7.628],[-11.371,7.654],[-11.364,7.612],[-11.353,7.597],[-11.311,7.597],[-11.332,7.588],[-11.362,7.559],[-11.367,7.526],[-11.352,7.482],[-11.349,7.441],[-11.251,7.376],[-11.143,7.341],[-11.143,7.324],[-11.181,7.293],[-11.176,7.286],[-11.183,7.265],[-11.222,7.246],[-11.234,7.252],[-11.253,7.231],[-11.274,7.239],[-11.29,7.198],[-11.295,7.196],[-11.29,7.203],[-11.302,7.206],[-11.303,7.214],[-11.312,7.209],[-11.313,7.184],[-11.336,7.157],[-11.329,7.148],[-11.353,7.142],[-11.334,7.113],[-11.332,7.08],[-11.365,7.081],[-11.374,7.073],[-11.374,7.062],[-11.363,7.052],[-11.369,7.02],[-11.396,7.002],[-11.398,6.987],[-11.412,6.99],[-11.415,6.972],[-11.431,6.972],[-11.43,6.965],[-11.421,6.951]]]]}},{"type":"Feature","properties":{"NEW_DIST":"Tonkolili","NEW_PROV":"Northern","CS_Pro_Num":2,"CS_Pro_Nam":"Northern","CS_Dis_Num":25,"CS_Dis_Nam":"Tonkolili","layer":"Tonkolili District"},"geometry":{"type":"MultiPolygon","coordinates":[[[[-12.302,8.328],[-12.331,8.335],[-12.344,8.352],[-12.371,8.353],[-12.397,8.317],[-12.436,8.314],[-12.464,8.292],[-12.528,8.288],[-12.592,8.31],[-12.604,8.341],[-12.648,8.36],[-12.633,8.375],[-12.63,8.408],[-12.617,8.43],[-12.601,8.497],[-12.582,8.482],[-12.565,8.445],[-12.546,8.432],[-12.535,8.453],[-12.5,8.461],[-12.446,8.49],[-12.395,8.496],[-12.374,8.506],[-12.336,8.543],[-12.323,8.541],[-12.3,8.557],[-12.29,8.575],[-12.325,8.606],[-12.328,8.633],[-12.347,8.63],[-12.39,8.647],[-12.401,8.668],[-12.388,8.67],[-12.391,8.68],[-12.378,8.707],[-12.367,8.693],[-12.339,8.706],[-12.334,8.719],[-12.319,8.707],[-12.314,8.716],[-12.324,8.724],[-12.304,8.761],[-12.287,8.745],[-12.268,8.75],[-12.27,8.723],[-12.259,8.747],[-12.236,8.708],[-12.253,8.707],[-12.243,8.698],[-12.261,8.664],[-12.261,8.652],[-12.243,8.645],[-12.232,8.625],[-12.243,8.612],[-12.241,8.603],[-12.201,8.607],[-12.195,8.595],[-12.181,8.615],[-12.185,8.623],[-12.174,8.617],[-12.166,8.633],[-12.125,8.644],[-12.122,8.659],[-12.103,8.674],[-12.073,8.681],[-12.073,8.704],[-12.06,8.703],[-12.06,8.686],[-12.044,8.692],[-12.038,8.679],[-12.028,8.689],[-12.005,8.681],[-11.996,8.706],[-11.89,8.766],[-11.879,8.788],[-11.885,8.797],[-11.885,8.86],[-11.867,8.879],[-11.871,8.953],[-11.887,8.972],[-11.871,8.973],[-11.865,8.983],[-11.871,8.988],[-11.86,8.997],[-11.838,8.999],[-11.829,9.011],[-11.832,9.021],[-11.82,9.02],[-11.822,9.029],[-11.813,9.016],[-11.8,9.013],[-11.762,9.056],[-11.813,9.083],[-11.82,9.106],[-11.834,9.108],[-11.842,9.121],[-11.834,9.157],[-11.818,9.17],[-11.822,9.186],[-11.797,9.21],[-11.796,9.244],[-11.751,9.245],[-11.743,9.268],[-11.718,9.291],[-11.706,9.194],[-11.717,9.113],[-11.669,9.094],[-11.653,9.079],[-11.646,9.054],[-11.577,9.12],[-11.58,9.13],[-11.562,9.152],[-11.555,9.148],[-11.511,9.166],[-11.495,9.186],[-11.464,9.182],[-11.448,9.164],[-11.441,9.125],[-11.45,9.035],[-11.436,9.014],[-11.444,8.986],[-11.458,8.985],[-11.457,8.966],[-11.466,8.958],[-11.476,8.922],[-11.484,8.932],[-11.494,8.904],[-11.51,8.911],[-11.509,8.922],[-11.516,8.914],[-11.521,8.918],[-11.541,8.894],[-11.55,8.863],[-11.559,8.86],[-11.554,8.849],[-11.475,8.84],[-11.442,8.862],[-11.398,8.772],[-11.377,8.69],[-11.364,8.667],[-11.351,8.66],[-11.353,8.627],[-11.337,8.575],[-11.345,8.558],[-11.365,8.551],[-11.38,8.531],[-11.388,8.548],[-11.42,8.553],[-11.459,8.549],[-11.492,8.534],[-11.533,8.539],[-11.551,8.526],[-11.58,8.527],[-11.59,8.519],[-11.583,8.49],[-11.624,8.475],[-11.686,8.471],[-11.729,8.483],[-11.727,8.452],[-11.739,8.439],[-11.741,8.422],[-11.767,8.393],[-11.803,8.382],[-11.827,8.356],[-11.848,8.361],[-11.866,8.35],[-11.915,8.361],[-11.931,8.349],[-11.988,8.37],[-11.996,8.376],[-11.996,8.391],[-12.008,8.373],[-12.024,8.37],[-12.028,8.358],[-12.04,8.367],[-12.067,8.32],[-12.05,8.291],[-12.035,8.297],[-12.04,8.284],[-12.03,8.237],[-12.039,8.25],[-12.056,8.248],[-12.082,8.277],[-12.132,8.305],[-12.134,8.32],[-12.166,8.339],[-12.169,8.361],[-12.219,8.353],[-12.23,8.344],[-12.247,8.354],[-12.262,8.351],[-12.276,8.345],[-12.292,8.32],[-12.301,8.328],[-12.302,8.328]],[[-11.994,8.687],[-11.994,8.685],[-11.994,8.687],[-11.992,8.688],[-11.994,8.687]],[[-11.998,8.678],[-11.998,8.678],[-11.998,8.677],[-11.998,8.678]],[[-12.214,8.363],[-12.216,8.36],[-12.216,8.36],[-12.216,8.36],[-12.216,8.36],[-12.214,8.363]],[[-11.654,9.045],[-11.655,9.046],[-11.655,9.047],[-11.655,9.046],[-11.654,9.045]]]]}},{"type":"Feature","properties":{"NEW_DIST":"Western Area Rur","NEW_PROV":"Western","CS_Pro_Num":4,"CS_Pro_Nam":"Western","CS_Dis_Num":41,"CS_Dis_Nam":"Western Area Rural","layer":"Western Area Rural District"},"geometry":{"type":"MultiPolygon","coordinates":[[[[-13.244,8.095],[-13.251,8.096],[-13.245,8.102],[-13.243,8.096],[-13.244,8.095]]],[[[-13.221,8.109],[-13.226,8.101],[-13.243,8.102],[-13.221,8.11],[-13.221,8.109]]],[[[-13.191,8.139],[-13.207,8.124],[-13.207,8.114],[-13.22,8.113],[-13.22,8.12],[-13.19,8.141],[-13.191,8.139]]],[[[-13.163,8.202],[-13.168,8.201],[-13.164,8.207],[-13.163,8.202]]],[[[-13.213,8.337],[-13.234,8.345],[-13.263,8.382],[-13.28,8.42],[-13.294,8.423],[-13.293,8.437],[-13.284,8.435],[-13.28,8.442],[-13.243,8.439],[-13.246,8.456],[-13.223,8.46],[-13.224,8.483],[-13.179,8.427],[-13.176,8.41],[-13.162,8.401],[-13.142,8.399],[-13.132,8.419],[-13.112,8.414],[-13.108,8.401],[-13.105,8.413],[-13.094,8.414],[-13.081,8.379],[-13.069,8.376],[-13.061,8.363],[-13.065,8.375],[-13.037,8.37],[-13.024,8.383],[-13.005,8.366],[-12.921,8.367],[-12.917,8.354],[-12.924,8.349],[-12.925,8.329],[-12.912,8.296],[-12.931,8.265],[-12.946,8.261],[-12.951,8.249],[-12.971,8.266],[-12.99,8.237],[-13.066,8.238],[-13.107,8.201],[-13.129,8.197],[-13.161,8.169],[-13.167,8.175],[-13.158,8.222],[-13.166,8.252],[-13.176,8.259],[-13.168,8.272],[-13.172,8.28],[-13.16,8.286],[-13.186,8.282],[-13.199,8.325],[-13.213,8.337]],[[-13.106,8.205],[-13.106,8.204],[-13.106,8.204],[-13.106,8.205]],[[-13.174,8.407],[-13.174,8.407],[-13.174,8.407],[-13.174,8.407],[-13.174,8.407],[-13.174,8.407]]]]}},{"type":"Feature","properties":{"NEW_DIST":"Western Area Urb","NEW_PROV":"Western","CS_Pro_Num":4,"CS_Pro_Nam":"Western","CS_Dis_Num":42,"CS_Dis_Nam":"Western Area Urban","layer":"Western Area Urban District"},"geometry":{"type":"MultiPolygon","coordinates":[[[[-13.258,8.488],[-13.21,8.494],[-13.203,8.481],[-13.186,8.482],[-13.151,8.437],[-13.126,8.418],[-13.137,8.415],[-13.145,8.398],[-13.176,8.41],[-13.179,8.427],[-13.223,8.483],[-13.223,8.46],[-13.246,8.456],[-13.243,8.439],[-13.28,8.442],[-13.284,8.476],[-13.299,8.495],[-13.287,8.5],[-13.274,8.493],[-13.284,8.486],[-13.279,8.468],[-13.269,8.497],[-13.258,8.488]],[[-13.225,8.479],[-13.225,8.479],[-13.225,8.479],[-13.225,8.479]],[[-13.237,8.458],[-13.237,8.458],[-13.237,8.458],[-13.237,8.458]],[[-13.226,8.48],[-13.225,8.48],[-13.225,8.48],[-13.226,8.48]],[[-13.212,8.469],[-13.212,8.469],[-13.212,8.469],[-13.212,8.469]]],[[[-13.062,8.559],[-13.057,8.548],[-13.088,8.539],[-13.088,8.566],[-13.061,8.561],[-13.062,8.559]]]]}}]}